{"type": "FeatureCollection", "features": [ {"type": "Feature", "properties": {"norad_id": 66989, "name": "CZ-4B R/B", "group": "last-30-days", "lat": 81.69863097806295, "lon": -49.30743021071378, "alt_km": 420.68748064256215, "timestamp": "2025-12-25T11:37:43.135849+00:00", "meta": {"OBJECT_NAME": "CZ-4B R/B", "OBJECT_ID": "2025-289B", "EPOCH": "2025-12-24T22:59:47.052672", "MEAN_MOTION": 15.70194994, "ECCENTRICITY": 0.0139625, "INCLINATION": 97.5229, "RA_OF_ASC_NODE": 65.203, "ARG_OF_PERICENTER": 316.5636, "MEAN_ANOMALY": 42.469, "EPHEMERIS_TYPE": 0, "CLASSIFICATION_TYPE": "U", "NORAD_CAT_ID": 66989, "ELEMENT_SET_NO": 999, "REV_AT_EPOCH": 248, "BSTAR": 0.00059597, "MEAN_MOTION_DOT": 0.00128159, "MEAN_MOTION_DDOT": 7.0448e-06}, "tle": {"line1": "1 66989U 25289B   25358.95818348  .00128159  70448-5  59597-3 0  9995", "line2": "2 66989  97.5229  65.2030 0139625 316.5636  42.4690 15.70194994  2484"}}, "geometry": {"type": "Point", "coordinates": [-49.30743021071378, 81.69863097806295]}}, {"type": "Feature", "properties": {"norad_id": 66990, "name": "TJS-22", "group": "last-30-days", "lat": 1.4905528041339684, "lon": -24.86739842082623, "alt_km": 35780.2973032161, "timestamp": "2025-12-25T11:37:43.135860+00:00", "meta": {"OBJECT_NAME": "TJS-22", "OBJECT_ID": "2025-290A", "EPOCH": "2025-12-24T08:24:24.274080", "MEAN_MOTION": 1.00271403, "ECCENTRICITY": 0.0003403, "INCLINATION": 1.9592, "RA_OF_ASC_NODE": 285.038, "ARG_OF_PERICENTER": 343.0864, "MEAN_ANOMALY": 17.5532, "EPHEMERIS_TYPE": 0, "CLASSIFICATION_TYPE": "U", "NORAD_CAT_ID": 66990, "ELEMENT_SET_NO": 999, "REV_AT_EPOCH": 27, "BSTAR": 0, "MEAN_MOTION_DOT": 1.5e-07, "MEAN_MOTION_DDOT": 0}, "tle": {"line1": "1 66990U 25290A   25358.35028095  .00000015  00000+0  00000+0 0  9997", "line2": "2 66990   1.9592 285.0380 0003403 343.0864  17.5532  1.00271403   272"}}, "geometry": {"type": "Point", "coordinates": [-24.86739842082623, 1.4905528041339684]}}, {"type": "Feature", "properties": {"norad_id": 66991, "name": "CZ-3B R/B", "group": "last-30-days", "lat": 17.17600984414817, "lon": -28.621766124293877, "alt_km": 24032.98392669298, "timestamp": "2025-12-25T11:37:43.135873+00:00", "meta": {"OBJECT_NAME": "CZ-3B R/B", "OBJECT_ID": "2025-290B", "EPOCH": "2025-12-15T17:23:33.043200", "MEAN_MOTION": 2.38388611, "ECCENTRICITY": 0.7240884, "INCLINATION": 28.4636, "RA_OF_ASC_NODE": 300.4666, "ARG_OF_PERICENTER": 182.7002, "MEAN_ANOMALY": 168.625, "EPHEMERIS_TYPE": 0, "CLASSIFICATION_TYPE": "U", "NORAD_CAT_ID": 66991, "ELEMENT_SET_NO": 999, "REV_AT_EPOCH": 16, "BSTAR": 0.00075879, "MEAN_MOTION_DOT": 0.00057911, "MEAN_MOTION_DDOT": -2.0514e-07}, "tle": {"line1": "1 66991U 25290B   25349.72468800  .00057911 -20514-6  75879-3 0  9998", "line2": "2 66991  28.4636 300.4666 7240884 182.7002 168.6250  2.38388611   165"}}, "geometry": {"type": "Point", "coordinates": [-28.621766124293877, 17.17600984414817]}}, {"type": "Feature", "properties": {"norad_id": 66993, "name": "2025-292A", "group": "last-30-days", "lat": -42.84773744952352, "lon": -115.25050571779617, "alt_km": 549.3491392014894, "timestamp": "2025-12-25T11:37:43.135884+00:00", "meta": {"OBJECT_NAME": "2025-292A", "OBJECT_ID": "2025-292A", "EPOCH": "2025-12-25T04:15:15.779808", "MEAN_MOTION": 15.04586117, "ECCENTRICITY": 0.0014597, "INCLINATION": 97.6495, "RA_OF_ASC_NODE": 71.6067, "ARG_OF_PERICENTER": 227.4634, "MEAN_ANOMALY": 132.5361, "EPHEMERIS_TYPE": 0, "CLASSIFICATION_TYPE": "U", "NORAD_CAT_ID": 66993, "ELEMENT_SET_NO": 999, "REV_AT_EPOCH": 226, "BSTAR": 0.00032168, "MEAN_MOTION_DOT": 4.463e-05, "MEAN_MOTION_DDOT": 0}, "tle": {"line1": "1 66993U 25292A   25359.17726597  .00004463  00000+0  32168-3 0  9990", "line2": "2 66993  97.6495  71.6067 0014597 227.4634 132.5361 15.04586117  2265"}}, "geometry": {"type": "Point", "coordinates": [-115.25050571779617, -42.84773744952352]}}, {"type": "Feature", "properties": {"norad_id": 66994, "name": "2025-292B", "group": "last-30-days", "lat": -45.27297226058709, "lon": -115.88582853921288, "alt_km": 549.4279441391227, "timestamp": "2025-12-25T11:37:43.135896+00:00", "meta": {"OBJECT_NAME": "2025-292B", "OBJECT_ID": "2025-292B", "EPOCH": "2025-12-25T04:14:37.306752", "MEAN_MOTION": 15.04634865, "ECCENTRICITY": 0.0014381, "INCLINATION": 97.6505, "RA_OF_ASC_NODE": 71.6089, "ARG_OF_PERICENTER": 227.8189, "MEAN_ANOMALY": 132.1817, "EPHEMERIS_TYPE": 0, "CLASSIFICATION_TYPE": "U", "NORAD_CAT_ID": 66994, "ELEMENT_SET_NO": 999, "REV_AT_EPOCH": 226, "BSTAR": 0.00036099, "MEAN_MOTION_DOT": 5.022e-05, "MEAN_MOTION_DDOT": 0}, "tle": {"line1": "1 66994U 25292B   25359.17682068  .00005022  00000+0  36099-3 0  9994", "line2": "2 66994  97.6505  71.6089 0014381 227.8189 132.1817 15.04634865  2268"}}, "geometry": {"type": "Point", "coordinates": [-115.88582853921288, -45.27297226058709]}}, {"type": "Feature", "properties": {"norad_id": 66995, "name": "2025-292C", "group": "last-30-days", "lat": -46.27560877076388, "lon": -116.16573893778278, "alt_km": 549.1505517641335, "timestamp": "2025-12-25T11:37:43.135906+00:00", "meta": {"OBJECT_NAME": "2025-292C", "OBJECT_ID": "2025-292C", "EPOCH": "2025-12-25T04:14:21.537888", "MEAN_MOTION": 15.04667565, "ECCENTRICITY": 0.0014684, "INCLINATION": 97.6495, "RA_OF_ASC_NODE": 71.6075, "ARG_OF_PERICENTER": 228.183, "MEAN_ANOMALY": 131.8142, "EPHEMERIS_TYPE": 0, "CLASSIFICATION_TYPE": "U", "NORAD_CAT_ID": 66995, "ELEMENT_SET_NO": 999, "REV_AT_EPOCH": 226, "BSTAR": 0.00041742, "MEAN_MOTION_DOT": 5.823e-05, "MEAN_MOTION_DDOT": 0}, "tle": {"line1": "1 66995U 25292C   25359.17663817  .00005823  00000+0  41742-3 0  9996", "line2": "2 66995  97.6495  71.6075 0014684 228.1830 131.8142 15.04667565  2265"}}, "geometry": {"type": "Point", "coordinates": [-116.16573893778278, -46.27560877076388]}}, {"type": "Feature", "properties": {"norad_id": 66996, "name": "2025-292D", "group": "last-30-days", "lat": -48.2012182786895, "lon": -116.73303555895056, "alt_km": 549.8053782538382, "timestamp": "2025-12-25T11:37:43.135916+00:00", "meta": {"OBJECT_NAME": "2025-292D", "OBJECT_ID": "2025-292D", "EPOCH": "2025-12-25T04:13:50.344032", "MEAN_MOTION": 15.04678098, "ECCENTRICITY": 0.0013793, "INCLINATION": 97.6491, "RA_OF_ASC_NODE": 71.6071, "ARG_OF_PERICENTER": 230.7506, "MEAN_ANOMALY": 129.2496, "EPHEMERIS_TYPE": 0, "CLASSIFICATION_TYPE": "U", "NORAD_CAT_ID": 66996, "ELEMENT_SET_NO": 999, "REV_AT_EPOCH": 226, "BSTAR": 0.00028069, "MEAN_MOTION_DOT": 3.895e-05, "MEAN_MOTION_DDOT": 0}, "tle": {"line1": "1 66996U 25292D   25359.17627713  .00003895  00000+0  28069-3 0  9996", "line2": "2 66996  97.6491  71.6071 0013793 230.7506 129.2496 15.04678098  2263"}}, "geometry": {"type": "Point", "coordinates": [-116.73303555895056, -48.2012182786895]}}, {"type": "Feature", "properties": {"norad_id": 66997, "name": "2025-292E", "group": "last-30-days", "lat": -52.70287392778978, "lon": -118.24686358457348, "alt_km": 549.3912346121897, "timestamp": "2025-12-25T11:37:43.135925+00:00", "meta": {"OBJECT_NAME": "2025-292E", "OBJECT_ID": "2025-292E", "EPOCH": "2025-12-25T04:12:38.437632", "MEAN_MOTION": 15.04769293, "ECCENTRICITY": 0.0014185, "INCLINATION": 97.6511, "RA_OF_ASC_NODE": 71.6119, "ARG_OF_PERICENTER": 231.7423, "MEAN_ANOMALY": 128.2528, "EPHEMERIS_TYPE": 0, "CLASSIFICATION_TYPE": "U", "NORAD_CAT_ID": 66997, "ELEMENT_SET_NO": 999, "REV_AT_EPOCH": 225, "BSTAR": 0.00033082, "MEAN_MOTION_DOT": 4.613e-05, "MEAN_MOTION_DDOT": 0}, "tle": {"line1": "1 66997U 25292E   25359.17544488  .00004613  00000+0  33082-3 0  9994", "line2": "2 66997  97.6511  71.6119 0014185 231.7423 128.2528 15.04769293  2257"}}, "geometry": {"type": "Point", "coordinates": [-118.24686358457348, -52.70287392778978]}}, {"type": "Feature", "properties": {"norad_id": 66998, "name": "2025-292F", "group": "last-30-days", "lat": -61.44228177544205, "lon": -122.37777489118068, "alt_km": 548.4098861640923, "timestamp": "2025-12-25T11:37:43.135935+00:00", "meta": {"OBJECT_NAME": "2025-292F", "OBJECT_ID": "2025-292F", "EPOCH": "2025-12-25T02:34:33.020832", "MEAN_MOTION": 15.04950396, "ECCENTRICITY": 0.0015304, "INCLINATION": 97.6529, "RA_OF_ASC_NODE": 71.5516, "ARG_OF_PERICENTER": 232.8955, "MEAN_ANOMALY": 127.0873, "EPHEMERIS_TYPE": 0, "CLASSIFICATION_TYPE": "U", "NORAD_CAT_ID": 66998, "ELEMENT_SET_NO": 999, "REV_AT_EPOCH": 225, "BSTAR": 0.00043397, "MEAN_MOTION_DOT": 6.104e-05, "MEAN_MOTION_DDOT": 0}, "tle": {"line1": "1 66998U 25292F   25359.10732663  .00006104  00000+0  43397-3 0  9999", "line2": "2 66998  97.6529  71.5516 0015304 232.8955 127.0873 15.04950396  2259"}}, "geometry": {"type": "Point", "coordinates": [-122.37777489118068, -61.44228177544205]}}, {"type": "Feature", "properties": {"norad_id": 66999, "name": "2025-292G", "group": "last-30-days", "lat": -64.78060666999689, "lon": -124.66241380326866, "alt_km": 548.6522783222126, "timestamp": "2025-12-25T11:37:43.135945+00:00", "meta": {"OBJECT_NAME": "2025-292G", "OBJECT_ID": "2025-292G", "EPOCH": "2025-12-25T02:33:38.606976", "MEAN_MOTION": 15.05014512, "ECCENTRICITY": 0.0014811, "INCLINATION": 97.654, "RA_OF_ASC_NODE": 71.5539, "ARG_OF_PERICENTER": 234.853, "MEAN_ANOMALY": 125.1309, "EPHEMERIS_TYPE": 0, "CLASSIFICATION_TYPE": "U", "NORAD_CAT_ID": 66999, "ELEMENT_SET_NO": 999, "REV_AT_EPOCH": 225, "BSTAR": 0.00043558, "MEAN_MOTION_DOT": 6.137e-05, "MEAN_MOTION_DDOT": 0}, "tle": {"line1": "1 66999U 25292G   25359.10669684  .00006137  00000+0  43558-3 0  9997", "line2": "2 66999  97.6540  71.5539 0014811 234.8530 125.1309 15.05014512  2256"}}, "geometry": {"type": "Point", "coordinates": [-124.66241380326866, -64.78060666999689]}}]}